     2.100          NAVIGATION                              RINEX VERSION / TYPE
fic2rin                                 05/22/2015 00:25:21 PGM / RUN BY / DATE
                                                            END OF HEADER
 5 15  5 21 23 59 44.0 -.238766428083D-03  .454747350886D-11  .000000000000D+00
     .150000000000D+02  .190625000000D+01  .512949937852D-08 -.202973066300D+01
     .119209289551D-06  .412797171157D-02  .578351318836D-05  .515355055809D+04
     .431984000000D+06 -.316649675369D-07 -.769493392648D+00 -.298023223877D-07
     .946352704143D+00  .261500000000D+03  .371498649907D+00 -.823034282681D-08
    -.100004165575D-09  .100000000000D+01  .184500000000D+04  .000000000000D+00
     .240000000000D+01  .000000000000D+00 -.107102096081D-07  .150000000000D+02
     .426126000000D+06  .400000000000D+01
18 15  5 21 23 59 44.0  .403263140470D-03  .295585778076D-11  .000000000000D+00
     .500000000000D+01  .721875000000D+01  .563987778069D-08 -.136892673082D+01
     .488013029099D-06  .162289382424D-01  .522285699844D-05  .515359603691D+04
     .431984000000D+06  .286847352982D-06 -.782514972764D+00  .340864062309D-06
     .924922687840D+00  .259281250000D+03 -.196226882922D+01 -.855821362681D-08
    -.188222125921D-09  .100000000000D+01  .184500000000D+04  .000000000000D+00
     .240000000000D+01  .000000000000D+00 -.111758708954D-07  .500000000000D+01
     .428946000000D+06  .400000000000D+01
29 15  5 21 23 59 44.0  .611913390458D-03  .238742359215D-11  .000000000000D+00
     .370000000000D+02 -.103625000000D+03  .427839249793D-08 -.231429293810D+00
    -.532343983650D-05  .128480978310D-02  .849738717079D-05  .515376511574D+04
     .431984000000D+06  .279396772385D-07 -.280318728798D+01 -.223517417908D-07
     .973559854161D+00  .225281250000D+03 -.601173389993D+00 -.789532887214D-08
    -.239295681911D-10  .100000000000D+01  .184500000000D+04  .000000000000D+00
     .240000000000D+01  .000000000000D+00 -.977888703346D-08  .370000000000D+02
     .429816000000D+06  .400000000000D+01
16 15  5 21 23 59 44.0 -.126834493130D-03  .375166564481D-11  .000000000000D+00
     .500000000000D+01 -.336875000000D+02  .412088593715D-08 -.194443866810D+01
    -.204332172871D-05  .818723789416D-02  .264868140221D-05  .515355832672D+04
     .431984000000D+06  .111758708954D-06  .244434825714D+01 -.134110450745D-06
     .990243535161D+00  .343062500000D+03  .299481808562D+00 -.807819363205D-08
     .110004582132D-09  .100000000000D+01  .184500000000D+04  .000000000000D+00
     .240000000000D+01  .000000000000D+00 -.102445483208D-07  .500000000000D+01
     .430476000000D+06  .400000000000D+01
